{"fetched_at":"2026-07-16T06:42:33.601Z","source":"https://celestrak.org/NORAD/elements/gp.php?GROUP=oneweb&FORMAT=JSON","constellation":"oneweb","records":[{"OBJECT_NAME":"ONEWEB-0387","OBJECT_ID":"2021-090AL","EPOCH":"2026-07-15T05:54:31.078656","CLASSIFICATION_TYPE":"U","MEAN_MOTION":13.2076999,"ECCENTRICITY":0.00019934,"INCLINATION":87.9176,"RA_OF_ASC_NODE":268.8596,"ARG_OF_PERICENTER":88.3503,"MEAN_ANOMALY":271.7859,"EPHEMERIS_TYPE":0,"NORAD_CAT_ID":49313,"ELEMENT_SET_NO":999,"REV_AT_EPOCH":23352,"BSTAR":0.0001878513,"MEAN_MOTION_DOT":8.9e-7,"MEAN_MOTION_DDOT":0},{"OBJECT_NAME":"ONEWEB-0388","OBJECT_ID":"2021-090AM","EPOCH":"2026-07-15T20:08:21.171552","CLASSIFICATION_TYPE":"U","MEAN_MOTION":13.19727081,"ECCENTRICITY":0.00018649,"INCLINATION":87.9185,"RA_OF_ASC_NODE":299.2637,"ARG_OF_PERICENTER":99.9037,"MEAN_ANOMALY":260.2306,"EPHEMERIS_TYPE":0,"NORAD_CAT_ID":49314,"ELEMENT_SET_NO":999,"REV_AT_EPOCH":23019,"BSTAR":0.00007719105,"MEAN_MOTION_DOT":4.4e-7,"MEAN_MOTION_DDOT":0},{"OBJECT_NAME":"ONEWEB-0389","OBJECT_ID":"2021-132A","EPOCH":"2026-07-15T21:39:42.719328","CLASSIFICATION_TYPE":"U","MEAN_MOTION":13.17650132,"ECCENTRICITY":0.00017103,"INCLINATION":87.9144,"RA_OF_ASC_NODE":0.1551,"ARG_OF_PERICENTER":82.5296,"MEAN_ANOMALY":277.603,"EPHEMERIS_TYPE":0,"NORAD_CAT_ID":50469,"ELEMENT_SET_NO":999,"REV_AT_EPOCH":22186,"BSTAR":0.000027896289,"MEAN_MOTION_DOT":2.4e-7,"MEAN_MOTION_DDOT":0},{"OBJECT_NAME":"ONEWEB-0390","OBJECT_ID":"2021-132B","EPOCH":"2026-07-15T21:42:08.480448","CLASSIFICATION_TYPE":"U","MEAN_MOTION":13.17650325,"ECCENTRICITY":0.00020755,"INCLINATION":87.9145,"RA_OF_ASC_NODE":0.1557,"ARG_OF_PERICENTER":91.1613,"MEAN_ANOMALY":268.9756,"EPHEMERIS_TYPE":0,"NORAD_CAT_ID":50470,"ELEMENT_SET_NO":999,"REV_AT_EPOCH":22186,"BSTAR":0.000002866514,"MEAN_MOTION_DOT":1.4e-7,"MEAN_MOTION_DDOT":0},{"OBJECT_NAME":"ONEWEB-0391","OBJECT_ID":"2021-132C","EPOCH":"2026-07-15T21:44:34.292544","CLASSIFICATION_TYPE":"U","MEAN_MOTION":13.17650222,"ECCENTRICITY":0.00019971,"INCLINATION":87.9146,"RA_OF_ASC_NODE":0.1653,"ARG_OF_PERICENTER":68.1029,"MEAN_ANOMALY":292.0315,"EPHEMERIS_TYPE":0,"NORAD_CAT_ID":50471,"ELEMENT_SET_NO":999,"REV_AT_EPOCH":22186,"BSTAR":0.00012741017,"MEAN_MOTION_DOT":6.2e-7,"MEAN_MOTION_DDOT":0},{"OBJECT_NAME":"ONEWEB-0392","OBJECT_ID":"2021-132D","EPOCH":"2026-07-15T22:28:18.975936","CLASSIFICATION_TYPE":"U","MEAN_MOTION":13.17651101,"ECCENTRICITY":0.00017545,"INCLINATION":87.9155,"RA_OF_ASC_NODE":0.1297,"ARG_OF_PERICENTER":81.2488,"MEAN_ANOMALY":278.8842,"EPHEMERIS_TYPE":0,"NORAD_CAT_ID":50472,"ELEMENT_SET_NO":999,"REV_AT_EPOCH":22190,"BSTAR":-0.000020067755,"MEAN_MOTION_DOT":5e-8,"MEAN_MOTION_DDOT":0},{"OBJECT_NAME":"ONEWEB-0393","OBJECT_ID":"2021-132E","EPOCH":"2026-07-15T21:53:05.847072","CLASSIFICATION_TYPE":"U","MEAN_MOTION":13.17647656,"ECCENTRICITY":0.00017996,"INCLINATION":87.9143,"RA_OF_ASC_NODE":0.1495,"ARG_OF_PERICENTER":88.4753,"MEAN_ANOMALY":271.6585,"EPHEMERIS_TYPE":0,"NORAD_CAT_ID":50473,"ELEMENT_SET_NO":999,"REV_AT_EPOCH":22189,"BSTAR":-0.00010949386,"MEAN_MOTION_DOT":-3e-7,"MEAN_MOTION_DDOT":0},{"OBJECT_NAME":"ONEWEB-0394","OBJECT_ID":"2021-132F","EPOCH":"2026-07-15T20:31:38.289792","CLASSIFICATION_TYPE":"U","MEAN_MOTION":13.18684965,"ECCENTRICITY":0.00017423,"INCLINATION":87.9196,"RA_OF_ASC_NODE":329.7418,"ARG_OF_PERICENTER":97.5224,"MEAN_ANOMALY":262.6106,"EPHEMERIS_TYPE":0,"NORAD_CAT_ID":50474,"ELEMENT_SET_NO":999,"REV_AT_EPOCH":22537,"BSTAR":0.00014449831,"MEAN_MOTION_DOT":7e-7,"MEAN_MOTION_DDOT":0},{"OBJECT_NAME":"ONEWEB-0395","OBJECT_ID":"2021-132G","EPOCH":"2026-07-15T22:20:31.805952","CLASSIFICATION_TYPE":"U","MEAN_MOTION":13.11419384,"ECCENTRICITY":0.00020099,"INCLINATION":87.8884,"RA_OF_ASC_NODE":15.3425,"ARG_OF_PERICENTER":84.8175,"MEAN_ANOMALY":275.3182,"EPHEMERIS_TYPE":0,"NORAD_CAT_ID":50475,"ELEMENT_SET_NO":999,"REV_AT_EPOCH":21948,"BSTAR":0.0003905591,"MEAN_MOTION_DOT":0.00000151,"MEAN_MOTION_DDOT":0},{"OBJECT_NAME":"ONEWEB-0396","OBJECT_ID":"2021-132H","EPOCH":"2026-07-15T22:11:11.838048","CLASSIFICATION_TYPE":"U","MEAN_MOTION":13.18686884,"ECCENTRICITY":0.0001745,"INCLINATION":87.9198,"RA_OF_ASC_NODE":329.7409,"ARG_OF_PERICENTER":95.7869,"MEAN_ANOMALY":264.3462,"EPHEMERIS_TYPE":0,"NORAD_CAT_ID":50476,"ELEMENT_SET_NO":999,"REV_AT_EPOCH":22542,"BSTAR":-0.000052660766,"MEAN_MOTION_DOT":-8e-8,"MEAN_MOTION_DDOT":0},{"OBJECT_NAME":"ONEWEB-0397","OBJECT_ID":"2021-132J","EPOCH":"2026-07-15T20:43:46.873344","CLASSIFICATION_TYPE":"U","MEAN_MOTION":13.18686575,"ECCENTRICITY":0.00016379,"INCLINATION":87.9198,"RA_OF_ASC_NODE":329.7531,"ARG_OF_PERICENTER":97.786,"MEAN_ANOMALY":262.3458,"EPHEMERIS_TYPE":0,"NORAD_CAT_ID":50477,"ELEMENT_SET_NO":999,"REV_AT_EPOCH":22539,"BSTAR":-0.000073175262,"MEAN_MOTION_DOT":-1.6e-7,"MEAN_MOTION_DDOT":0},{"OBJECT_NAME":"ONEWEB-0398","OBJECT_ID":"2021-132K","EPOCH":"2026-07-15T21:34:08.461056","CLASSIFICATION_TYPE":"U","MEAN_MOTION":13.11415375,"ECCENTRICITY":0.00021615,"INCLINATION":87.889,"RA_OF_ASC_NODE":15.3419,"ARG_OF_PERICENTER":88.7097,"MEAN_ANOMALY":271.4279,"EPHEMERIS_TYPE":0,"NORAD_CAT_ID":50478,"ELEMENT_SET_NO":999,"REV_AT_EPOCH":21937,"BSTAR":-0.0010031606,"MEAN_MOTION_DOT":-0.00000343,"MEAN_MOTION_DDOT":0},{"OBJECT_NAME":"ONEWEB-0399","OBJECT_ID":"2021-132L","EPOCH":"2026-07-15T23:04:29.463168","CLASSIFICATION_TYPE":"U","MEAN_MOTION":13.11415025,"ECCENTRICITY":0.0001514,"INCLINATION":87.8892,"RA_OF_ASC_NODE":15.3405,"ARG_OF_PERICENTER":77.9707,"MEAN_ANOMALY":282.1591,"EPHEMERIS_TYPE":0,"NORAD_CAT_ID":50479,"ELEMENT_SET_NO":999,"REV_AT_EPOCH":21937,"BSTAR":0.00049021985,"MEAN_MOTION_DOT":0.00000186,"MEAN_MOTION_DDOT":0},{"OBJECT_NAME":"ONEWEB-0400","OBJECT_ID":"2021-132M","EPOCH":"2026-07-15T22:01:28.466112","CLASSIFICATION_TYPE":"U","MEAN_MOTION":13.18684922,"ECCENTRICITY":0.00020508,"INCLINATION":87.9199,"RA_OF_ASC_NODE":329.7321,"ARG_OF_PERICENTER":97.0509,"MEAN_ANOMALY":263.0857,"EPHEMERIS_TYPE":0,"NORAD_CAT_ID":50480,"ELEMENT_SET_NO":999,"REV_AT_EPOCH":22539,"BSTAR":-0.000031338663,"MEAN_MOTION_DOT":1e-8,"MEAN_MOTION_DDOT":0},{"OBJECT_NAME":"ONEWEB-0401","OBJECT_ID":"2021-132N","EPOCH":"2026-07-15T21:17:46.860288","CLASSIFICATION_TYPE":"U","MEAN_MOTION":13.18686314,"ECCENTRICITY":0.00017723,"INCLINATION":87.9201,"RA_OF_ASC_NODE":329.7358,"ARG_OF_PERICENTER":105.4551,"MEAN_ANOMALY":254.6777,"EPHEMERIS_TYPE":0,"NORAD_CAT_ID":50481,"ELEMENT_SET_NO":999,"REV_AT_EPOCH":22539,"BSTAR":-0.00015600793,"MEAN_MOTION_DOT":-4.9e-7,"MEAN_MOTION_DDOT":0},{"OBJECT_NAME":"ONEWEB-0402","OBJECT_ID":"2021-132P","EPOCH":"2026-07-15T20:24:20.894976","CLASSIFICATION_TYPE":"U","MEAN_MOTION":13.18687529,"ECCENTRICITY":0.00015821,"INCLINATION":87.9196,"RA_OF_ASC_NODE":329.7319,"ARG_OF_PERICENTER":110.3601,"MEAN_ANOMALY":249.7701,"EPHEMERIS_TYPE":0,"NORAD_CAT_ID":50482,"ELEMENT_SET_NO":999,"REV_AT_EPOCH":22541,"BSTAR":0.000064771818,"MEAN_MOTION_DOT":3.8e-7,"MEAN_MOTION_DDOT":0}]}
